CCSDS_OMM_VERS = 2.0
CREATION_DATE  = 
ORIGINATOR     = 

OBJECT_NAME    = STARLINK-36520
OBJECT_ID      = 2026-008X
CENTER_NAME    = EARTH
REF_FRAME      = TEME
TIME_SYSTEM    = UTC
MEAN_ELEMENT_THEORY = SGP/SGP4

EPOCH          = 2026-02-07T22:00:00.999936
MEAN_MOTION    = 15.50655959
ECCENTRICITY   = .00016819
INCLINATION    = 43.0004
RA_OF_ASC_NODE = 14.6746
ARG_OF_PERICENTER = 241.8078
MEAN_ANOMALY   = 122.4042

EPHEMERIS_TYPE = 0
CLASSIFICATION_TYPE = U
NORAD_CAT_ID   = 67466
ELEMENT_SET_NO = 999
REV_AT_EPOCH   = 501
BSTAR          = -.30377755E-2
MEAN_MOTION_DOT = -.175111E-2
MEAN_MOTION_DDOT = 0

CCSDS_OMM_VERS = 2.0
CREATION_DATE  = 
ORIGINATOR     = 

OBJECT_NAME    = STARLINK-36425
OBJECT_ID      = 2026-008Y
CENTER_NAME    = EARTH
REF_FRAME      = TEME
TIME_SYSTEM    = UTC
MEAN_ELEMENT_THEORY = SGP/SGP4

EPOCH          = 2026-02-07T22:00:00.999936
MEAN_MOTION    = 15.50565237
ECCENTRICITY   = .00010445
INCLINATION    = 42.9999
RA_OF_ASC_NODE = 15.0623
ARG_OF_PERICENTER = 243.9843
MEAN_ANOMALY   = 322.8021

EPHEMERIS_TYPE = 0
CLASSIFICATION_TYPE = U
NORAD_CAT_ID   = 67467
ELEMENT_SET_NO = 999
REV_AT_EPOCH   = 501
BSTAR          = -.27523926E-3
MEAN_MOTION_DOT = -.16446E-3
MEAN_MOTION_DDOT = 0

CCSDS_OMM_VERS = 2.0
CREATION_DATE  = 
ORIGINATOR     = 

OBJECT_NAME    = STARLINK-36414
OBJECT_ID      = 2026-008Z
CENTER_NAME    = EARTH
REF_FRAME      = TEME
TIME_SYSTEM    = UTC
MEAN_ELEMENT_THEORY = SGP/SGP4

EPOCH          = 2026-02-07T22:00:00.999936
MEAN_MOTION    = 15.50555884
ECCENTRICITY   = .00009411
INCLINATION    = 43.0004
RA_OF_ASC_NODE = 14.4840
ARG_OF_PERICENTER = 252.8369
MEAN_ANOMALY   = 186.8776

EPHEMERIS_TYPE = 0
CLASSIFICATION_TYPE = U
NORAD_CAT_ID   = 67468
ELEMENT_SET_NO = 999
REV_AT_EPOCH   = 501
BSTAR          = .23213774E-4
MEAN_MOTION_DOT = .102E-4
MEAN_MOTION_DDOT = 0

CCSDS_OMM_VERS = 2.0
CREATION_DATE  = 
ORIGINATOR     = 

OBJECT_NAME    = STARLINK-36441
OBJECT_ID      = 2026-008AA
CENTER_NAME    = EARTH
REF_FRAME      = TEME
TIME_SYSTEM    = UTC
MEAN_ELEMENT_THEORY = SGP/SGP4

EPOCH          = 2026-02-07T22:00:00.999936
MEAN_MOTION    = 15.50571562
ECCENTRICITY   = .00014986
INCLINATION    = 43.0004
RA_OF_ASC_NODE = 14.6286
ARG_OF_PERICENTER = 262.1943
MEAN_ANOMALY   = 117.9840

EPHEMERIS_TYPE = 0
CLASSIFICATION_TYPE = U
NORAD_CAT_ID   = 67469
ELEMENT_SET_NO = 999
REV_AT_EPOCH   = 501
BSTAR          = -.34583181E-3
MEAN_MOTION_DOT = -.20571E-3
MEAN_MOTION_DDOT = 0

CCSDS_OMM_VERS = 2.0
CREATION_DATE  = 
ORIGINATOR     = 

OBJECT_NAME    = STARLINK-36454
OBJECT_ID      = 2026-008AB
CENTER_NAME    = EARTH
REF_FRAME      = TEME
TIME_SYSTEM    = UTC
MEAN_ELEMENT_THEORY = SGP/SGP4

EPOCH          = 2026-02-07T22:00:00.999936
MEAN_MOTION    = 15.50490572
ECCENTRICITY   = .0001104
INCLINATION    = 43.0002
RA_OF_ASC_NODE = 14.5409
ARG_OF_PERICENTER = 256.4324
MEAN_ANOMALY   = 159.3085

EPHEMERIS_TYPE = 0
CLASSIFICATION_TYPE = U
NORAD_CAT_ID   = 67470
ELEMENT_SET_NO = 999
REV_AT_EPOCH   = 501
BSTAR          = .23688641E-2
MEAN_MOTION_DOT = .14071E-2
MEAN_MOTION_DDOT = 0

CCSDS_OMM_VERS = 2.0
CREATION_DATE  = 
ORIGINATOR     = 

OBJECT_NAME    = STARLINK-36334
OBJECT_ID      = 2026-008AC
CENTER_NAME    = EARTH
REF_FRAME      = TEME
TIME_SYSTEM    = UTC
MEAN_ELEMENT_THEORY = SGP/SGP4

EPOCH          = 2026-02-07T22:00:00.999936
MEAN_MOTION    = 15.51223786
ECCENTRICITY   = .00011006
INCLINATION    = 42.9998
RA_OF_ASC_NODE = 14.3809
ARG_OF_PERICENTER = 262.8017
MEAN_ANOMALY   = 218.1882

EPHEMERIS_TYPE = 0
CLASSIFICATION_TYPE = U
NORAD_CAT_ID   = 67471
ELEMENT_SET_NO = 999
REV_AT_EPOCH   = 501
BSTAR          = -.26974018E-1
MEAN_MOTION_DOT = -.1446531E-1
MEAN_MOTION_DDOT = 0

CCSDS_OMM_VERS = 2.0
CREATION_DATE  = 
ORIGINATOR     = 

OBJECT_NAME    = STARLINK-36269
OBJECT_ID      = 2026-008AD
CENTER_NAME    = EARTH
REF_FRAME      = TEME
TIME_SYSTEM    = UTC
MEAN_ELEMENT_THEORY = SGP/SGP4

EPOCH          = 2026-02-07T22:00:00.999936
MEAN_MOTION    = 15.50571703
ECCENTRICITY   = .00008468
INCLINATION    = 43.0002
RA_OF_ASC_NODE = 14.4599
ARG_OF_PERICENTER = 246.1900
MEAN_ANOMALY   = 201.8761

EPHEMERIS_TYPE = 0
CLASSIFICATION_TYPE = U
NORAD_CAT_ID   = 67472
ELEMENT_SET_NO = 999
REV_AT_EPOCH   = 503
BSTAR          = -.29333973E-3
MEAN_MOTION_DOT = -.17506E-3
MEAN_MOTION_DDOT = 0

CCSDS_OMM_VERS = 2.0
CREATION_DATE  = 
ORIGINATOR     = 

OBJECT_NAME    = STARLINK-36408
OBJECT_ID      = 2026-008AE
CENTER_NAME    = EARTH
REF_FRAME      = TEME
TIME_SYSTEM    = UTC
MEAN_ELEMENT_THEORY = SGP/SGP4

EPOCH          = 2026-02-07T22:00:00.999936
MEAN_MOTION    = 15.50564906
ECCENTRICITY   = .0000914
INCLINATION    = 43.0004
RA_OF_ASC_NODE = 14.5741
ARG_OF_PERICENTER = 250.6417
MEAN_ANOMALY   = 151.2456

EPHEMERIS_TYPE = 0
CLASSIFICATION_TYPE = U
NORAD_CAT_ID   = 67473
ELEMENT_SET_NO = 999
REV_AT_EPOCH   = 503
BSTAR          = -.26421378E-3
MEAN_MOTION_DOT = -.15802E-3
MEAN_MOTION_DDOT = 0

CCSDS_OMM_VERS = 2.0
CREATION_DATE  = 
ORIGINATOR     = 

OBJECT_NAME    = ALSAT-3A
OBJECT_ID      = 2026-009A
CENTER_NAME    = EARTH
REF_FRAME      = TEME
TIME_SYSTEM    = UTC
MEAN_ELEMENT_THEORY = SGP/SGP4

EPOCH          = 2026-02-07T22:11:47.760576
MEAN_MOTION    = 15.23437526
ECCENTRICITY   = .00123723
INCLINATION    = 97.4676
RA_OF_ASC_NODE = 113.5875
ARG_OF_PERICENTER = 172.5488
MEAN_ANOMALY   = 187.5935

EPHEMERIS_TYPE = 0
CLASSIFICATION_TYPE = U
NORAD_CAT_ID   = 67474
ELEMENT_SET_NO = 999
REV_AT_EPOCH   = 359
BSTAR          = .32317485E-3
MEAN_MOTION_DOT = .7644E-4
MEAN_MOTION_DDOT = 0

CCSDS_OMM_VERS = 2.0
CREATION_DATE  = 
ORIGINATOR     = 

OBJECT_NAME    = CZ-2C R/B
OBJECT_ID      = 2026-009B
CENTER_NAME    = EARTH
REF_FRAME      = TEME
TIME_SYSTEM    = UTC
MEAN_ELEMENT_THEORY = SGP/SGP4

EPOCH          = 2026-02-07T21:54:36.864288
MEAN_MOTION    = 15.03122891
ECCENTRICITY   = .01004322
INCLINATION    = 97.1754
RA_OF_ASC_NODE = 111.6503
ARG_OF_PERICENTER = 140.9657
MEAN_ANOMALY   = 219.8874

EPHEMERIS_TYPE = 0
CLASSIFICATION_TYPE = U
NORAD_CAT_ID   = 67475
ELEMENT_SET_NO = 999
REV_AT_EPOCH   = 360
BSTAR          = .24610686E-3
MEAN_MOTION_DOT = .3649E-4
MEAN_MOTION_DDOT = 0

CCSDS_OMM_VERS = 2.0
CREATION_DATE  = 
ORIGINATOR     = 

OBJECT_NAME    = TIANQI-37
OBJECT_ID      = 2026-010A
CENTER_NAME    = EARTH
REF_FRAME      = TEME
TIME_SYSTEM    = UTC
MEAN_ELEMENT_THEORY = SGP/SGP4

EPOCH          = 2026-02-07T22:10:46.343136
MEAN_MOTION    = 14.13528216
ECCENTRICITY   = .00129073
INCLINATION    = 44.9826
RA_OF_ASC_NODE = 298.2631
ARG_OF_PERICENTER = 68.4390
MEAN_ANOMALY   = 291.7822

EPHEMERIS_TYPE = 0
CLASSIFICATION_TYPE = U
NORAD_CAT_ID   = 67476
ELEMENT_SET_NO = 999
REV_AT_EPOCH   = 327
BSTAR          = .17143E-3
MEAN_MOTION_DOT = .192E-5
MEAN_MOTION_DDOT = 0

CCSDS_OMM_VERS = 2.0
CREATION_DATE  = 
ORIGINATOR     = 

OBJECT_NAME    = TIANQI-38
OBJECT_ID      = 2026-010B
CENTER_NAME    = EARTH
REF_FRAME      = TEME
TIME_SYSTEM    = UTC
MEAN_ELEMENT_THEORY = SGP/SGP4

EPOCH          = 2026-02-07T22:04:31.985760
MEAN_MOTION    = 14.13905550
ECCENTRICITY   = .00117485
INCLINATION    = 44.9789
RA_OF_ASC_NODE = 298.2308
ARG_OF_PERICENTER = 73.8062
MEAN_ANOMALY   = 286.4068

EPHEMERIS_TYPE = 0
CLASSIFICATION_TYPE = U
NORAD_CAT_ID   = 67477
ELEMENT_SET_NO = 999
REV_AT_EPOCH   = 327
BSTAR          = .19496408E-3
MEAN_MOTION_DOT = .239E-5
MEAN_MOTION_DDOT = 0

