STARLINK-36520          
1 67466U 26008X   26038.91667824 -.00175111  00000+0 -30378-2 0  9997
2 67466  43.0004  14.6746 0001681 241.8078 122.4042 15.50655959  5017
STARLINK-36425          
1 67467U 26008Y   26038.91667824 -.00016446  00000+0 -27524-3 0  9993
2 67467  42.9999  15.0623 0001044 243.9843 322.8021 15.50565237  5016
STARLINK-36414          
1 67468U 26008Z   26038.91667824  .00001020  00000+0  23214-4 0  9997
2 67468  43.0004  14.4840 0000941 252.8369 186.8776 15.50555884  5019
STARLINK-36441          
1 67469U 26008AA  26038.91667824 -.00020571  00000+0 -34583-3 0  9992
2 67469  43.0004  14.6286 0001498 262.1943 117.9840 15.50571562  5014
STARLINK-36454          
1 67470U 26008AB  26038.91667824  .00140710  00000+0  23689-2 0  9994
2 67470  43.0002  14.5409 0001104 256.4324 159.3085 15.50490572  5015
STARLINK-36334          
1 67471U 26008AC  26038.91667824 -.01446531  00000+0 -26974-1 0  9997
2 67471  42.9998  14.3809 0001100 262.8017 218.1882 15.51223786  5017
STARLINK-36269          
1 67472U 26008AD  26038.91667824 -.00017506  00000+0 -29334-3 0  9998
2 67472  43.0002  14.4599 0000846 246.1900 201.8761 15.50571703  5036
STARLINK-36408          
1 67473U 26008AE  26038.91667824 -.00015802  00000+0 -26421-3 0  9990
2 67473  43.0004  14.5741 0000914 250.6417 151.2456 15.50564906  5034
ALSAT-3A                
1 67474U 26009A   26038.92485834  .00007644  00000+0  32317-3 0  9996
2 67474  97.4676 113.5875 0012372 172.5488 187.5935 15.23437526  3592
CZ-2C R/B               
1 67475U 26009B   26038.91292667  .00003649  00000+0  24611-3 0  9995
2 67475  97.1754 111.6503 0100432 140.9657 219.8874 15.03122891  3603
TIANQI-37               
1 67476U 26010A   26038.92414749  .00000192  00000+0  17143-3 0  9998
2 67476  44.9826 298.2631 0012907  68.4390 291.7822 14.13528216  3271
TIANQI-38               
1 67477U 26010B   26038.91981465  .00000239  00000+0  19496-3 0  9997
2 67477  44.9789 298.2308 0011748  73.8062 286.4068 14.13905550  3272
